<?xml version="1.0" encoding="UTF-8" ?>
<gpx version="1.1" xmlns:xsi="http://www.w3.org/2001/XMLSchema-instance"
    xmlns="http://www.topografix.com/GPX/1/1"
    xsi:schemaLocation="http://www.topografix.com/GPX/1/1 http://www.topografix.com/GPX/1/1/gpx.xsd"
    creator="Openrunner - https://www.openrunner.com" >
                <wpt lat="47.776124" lon="3.450611">
                        <ele>0</ele>
                        <name><![CDATA[Ravitaillement]]></name>
                        <desc><![CDATA[]]></desc>
                    <sym>3</sym>
                </wpt>
            	<trk>
	                   <name>Nuit des Pirates  12 km - Marche Trail-19490014</name>
						<trkseg>
					<trkpt lat="47.751760" lon="3.489900">
						<ele>173</ele>
						<time>2026-06-05T13:22:48Z</time>
					</trkpt>
					<trkpt lat="47.752260" lon="3.489070">
						<ele>170</ele>
						<time>2026-06-05T13:23:05Z</time>
					</trkpt>
					<trkpt lat="47.751280" lon="3.487930">
						<ele>174</ele>
						<time>2026-06-05T13:23:35Z</time>
					</trkpt>
					<trkpt lat="47.751050" lon="3.487700">
						<ele>174</ele>
						<time>2026-06-05T13:23:41Z</time>
					</trkpt>
					<trkpt lat="47.755020" lon="3.482730">
						<ele>142</ele>
						<time>2026-06-05T13:25:42Z</time>
					</trkpt>
					<trkpt lat="47.756230" lon="3.485590">
						<ele>140</ele>
						<time>2026-06-05T13:26:35Z</time>
					</trkpt>
					<trkpt lat="47.757680" lon="3.488300">
						<ele>137</ele>
						<time>2026-06-05T13:27:30Z</time>
					</trkpt>
					<trkpt lat="47.757860" lon="3.488180">
						<ele>136</ele>
						<time>2026-06-05T13:27:34Z</time>
					</trkpt>
					<trkpt lat="47.758890" lon="3.487240">
						<ele>132</ele>
						<time>2026-06-05T13:28:02Z</time>
					</trkpt>
					<trkpt lat="47.759610" lon="3.487400">
						<ele>131</ele>
						<time>2026-06-05T13:28:19Z</time>
					</trkpt>
					<trkpt lat="47.760070" lon="3.486600">
						<ele>132</ele>
						<time>2026-06-05T13:28:36Z</time>
					</trkpt>
					<trkpt lat="47.760490" lon="3.486520">
						<ele>132</ele>
						<time>2026-06-05T13:28:46Z</time>
					</trkpt>
					<trkpt lat="47.760490" lon="3.485640">
						<ele>132</ele>
						<time>2026-06-05T13:29:00Z</time>
					</trkpt>
					<trkpt lat="47.760960" lon="3.484220">
						<ele>134</ele>
						<time>2026-06-05T13:29:25Z</time>
					</trkpt>
					<trkpt lat="47.761760" lon="3.482470">
						<ele>138</ele>
						<time>2026-06-05T13:29:58Z</time>
					</trkpt>
					<trkpt lat="47.762850" lon="3.481460">
						<ele>142</ele>
						<time>2026-06-05T13:30:28Z</time>
					</trkpt>
					<trkpt lat="47.763790" lon="3.480690">
						<ele>145</ele>
						<time>2026-06-05T13:30:53Z</time>
					</trkpt>
					<trkpt lat="47.764550" lon="3.480170">
						<ele>149</ele>
						<time>2026-06-05T13:31:12Z</time>
					</trkpt>
					<trkpt lat="47.764820" lon="3.480260">
						<ele>151</ele>
						<time>2026-06-05T13:31:19Z</time>
					</trkpt>
					<trkpt lat="47.764910" lon="3.481120">
						<ele>154</ele>
						<time>2026-06-05T13:31:32Z</time>
					</trkpt>
					<trkpt lat="47.764410" lon="3.482330">
						<ele>152</ele>
						<time>2026-06-05T13:31:55Z</time>
					</trkpt>
					<trkpt lat="47.766080" lon="3.482480">
						<ele>167</ele>
						<time>2026-06-05T13:32:34Z</time>
					</trkpt>
					<trkpt lat="47.767640" lon="3.480980">
						<ele>175</ele>
						<time>2026-06-05T13:33:17Z</time>
					</trkpt>
					<trkpt lat="47.769340" lon="3.479310">
						<ele>173</ele>
						<time>2026-06-05T13:34:05Z</time>
					</trkpt>
					<trkpt lat="47.770860" lon="3.477890">
						<ele>171</ele>
						<time>2026-06-05T13:34:47Z</time>
					</trkpt>
					<trkpt lat="47.772000" lon="3.476520">
						<ele>174</ele>
						<time>2026-06-05T13:35:21Z</time>
					</trkpt>
					<trkpt lat="47.772720" lon="3.475420">
						<ele>176</ele>
						<time>2026-06-05T13:35:45Z</time>
					</trkpt>
					<trkpt lat="47.773600" lon="3.474520">
						<ele>177</ele>
						<time>2026-06-05T13:36:10Z</time>
					</trkpt>
					<trkpt lat="47.775000" lon="3.475550">
						<ele>176</ele>
						<time>2026-06-05T13:36:46Z</time>
					</trkpt>
					<trkpt lat="47.775210" lon="3.473730">
						<ele>174</ele>
						<time>2026-06-05T13:37:15Z</time>
					</trkpt>
					<trkpt lat="47.775430" lon="3.471260">
						<ele>181</ele>
						<time>2026-06-05T13:37:55Z</time>
					</trkpt>
					<trkpt lat="47.775810" lon="3.469200">
						<ele>182</ele>
						<time>2026-06-05T13:38:28Z</time>
					</trkpt>
					<trkpt lat="47.776150" lon="3.467080">
						<ele>183</ele>
						<time>2026-06-05T13:39:02Z</time>
					</trkpt>
					<trkpt lat="47.776020" lon="3.465730">
						<ele>185</ele>
						<time>2026-06-05T13:39:24Z</time>
					</trkpt>
					<trkpt lat="47.776020" lon="3.464180">
						<ele>190</ele>
						<time>2026-06-05T13:39:48Z</time>
					</trkpt>
					<trkpt lat="47.776500" lon="3.462530">
						<ele>192</ele>
						<time>2026-06-05T13:40:16Z</time>
					</trkpt>
					<trkpt lat="47.776600" lon="3.461800">
						<ele>194</ele>
						<time>2026-06-05T13:40:28Z</time>
					</trkpt>
					<trkpt lat="47.776250" lon="3.459240">
						<ele>201</ele>
						<time>2026-06-05T13:41:09Z</time>
					</trkpt>
					<trkpt lat="47.776240" lon="3.457980">
						<ele>202</ele>
						<time>2026-06-05T13:41:29Z</time>
					</trkpt>
					<trkpt lat="47.775990" lon="3.455750">
						<ele>207</ele>
						<time>2026-06-05T13:42:04Z</time>
					</trkpt>
					<trkpt lat="47.775530" lon="3.454180">
						<ele>212</ele>
						<time>2026-06-05T13:42:31Z</time>
					</trkpt>
					<trkpt lat="47.775820" lon="3.452530">
						<ele>221</ele>
						<time>2026-06-05T13:42:58Z</time>
					</trkpt>
					<trkpt lat="47.776210" lon="3.451180">
						<ele>225</ele>
						<time>2026-06-05T13:43:21Z</time>
					</trkpt>
					<trkpt lat="47.776124" lon="3.450611">
						<ele>224</ele>
						<time>2026-06-05T13:43:30Z</time>
					</trkpt>
					<trkpt lat="47.775910" lon="3.449200">
						<ele>224</ele>
						<time>2026-06-05T13:43:53Z</time>
					</trkpt>
					<trkpt lat="47.774880" lon="3.447410">
						<ele>220</ele>
						<time>2026-06-05T13:44:30Z</time>
					</trkpt>
					<trkpt lat="47.773720" lon="3.447460">
						<ele>227</ele>
						<time>2026-06-05T13:44:57Z</time>
					</trkpt>
					<trkpt lat="47.770680" lon="3.445180">
						<ele>219</ele>
						<time>2026-06-05T13:46:16Z</time>
					</trkpt>
					<trkpt lat="47.770400" lon="3.445270">
						<ele>219</ele>
						<time>2026-06-05T13:46:23Z</time>
					</trkpt>
					<trkpt lat="47.770350" lon="3.445690">
						<ele>222</ele>
						<time>2026-06-05T13:46:30Z</time>
					</trkpt>
					<trkpt lat="47.769820" lon="3.446060">
						<ele>225</ele>
						<time>2026-06-05T13:46:43Z</time>
					</trkpt>
					<trkpt lat="47.770190" lon="3.447000">
						<ele>228</ele>
						<time>2026-06-05T13:47:00Z</time>
					</trkpt>
					<trkpt lat="47.770810" lon="3.448570">
						<ele>233</ele>
						<time>2026-06-05T13:47:29Z</time>
					</trkpt>
					<trkpt lat="47.770740" lon="3.448950">
						<ele>232</ele>
						<time>2026-06-05T13:47:35Z</time>
					</trkpt>
					<trkpt lat="47.768710" lon="3.450410">
						<ele>215</ele>
						<time>2026-06-05T13:48:28Z</time>
					</trkpt>
					<trkpt lat="47.767070" lon="3.451320">
						<ele>198</ele>
						<time>2026-06-05T13:49:09Z</time>
					</trkpt>
					<trkpt lat="47.766950" lon="3.451590">
						<ele>197</ele>
						<time>2026-06-05T13:49:14Z</time>
					</trkpt>
					<trkpt lat="47.766820" lon="3.452670">
						<ele>194</ele>
						<time>2026-06-05T13:49:31Z</time>
					</trkpt>
					<trkpt lat="47.766760" lon="3.453910">
						<ele>194</ele>
						<time>2026-06-05T13:49:51Z</time>
					</trkpt>
					<trkpt lat="47.765960" lon="3.455000">
						<ele>194</ele>
						<time>2026-06-05T13:50:16Z</time>
					</trkpt>
					<trkpt lat="47.764930" lon="3.455180">
						<ele>196</ele>
						<time>2026-06-05T13:50:40Z</time>
					</trkpt>
					<trkpt lat="47.764410" lon="3.455380">
						<ele>196</ele>
						<time>2026-06-05T13:50:53Z</time>
					</trkpt>
					<trkpt lat="47.764200" lon="3.456270">
						<ele>194</ele>
						<time>2026-06-05T13:51:07Z</time>
					</trkpt>
					<trkpt lat="47.763140" lon="3.457570">
						<ele>193</ele>
						<time>2026-06-05T13:51:40Z</time>
					</trkpt>
					<trkpt lat="47.762560" lon="3.457970">
						<ele>188</ele>
						<time>2026-06-05T13:51:54Z</time>
					</trkpt>
					<trkpt lat="47.762390" lon="3.458410">
						<ele>186</ele>
						<time>2026-06-05T13:52:02Z</time>
					</trkpt>
					<trkpt lat="47.761490" lon="3.458230">
						<ele>181</ele>
						<time>2026-06-05T13:52:24Z</time>
					</trkpt>
					<trkpt lat="47.760810" lon="3.458170">
						<ele>178</ele>
						<time>2026-06-05T13:52:40Z</time>
					</trkpt>
					<trkpt lat="47.760080" lon="3.458870">
						<ele>174</ele>
						<time>2026-06-05T13:53:00Z</time>
					</trkpt>
					<trkpt lat="47.759410" lon="3.460050">
						<ele>171</ele>
						<time>2026-06-05T13:53:24Z</time>
					</trkpt>
					<trkpt lat="47.760090" lon="3.461220">
						<ele>171</ele>
						<time>2026-06-05T13:53:48Z</time>
					</trkpt>
					<trkpt lat="47.760350" lon="3.462080">
						<ele>174</ele>
						<time>2026-06-05T13:54:03Z</time>
					</trkpt>
					<trkpt lat="47.760140" lon="3.463300">
						<ele>171</ele>
						<time>2026-06-05T13:54:23Z</time>
					</trkpt>
					<trkpt lat="47.760370" lon="3.464410">
						<ele>168</ele>
						<time>2026-06-05T13:54:41Z</time>
					</trkpt>
					<trkpt lat="47.760700" lon="3.465210">
						<ele>166</ele>
						<time>2026-06-05T13:54:56Z</time>
					</trkpt>
					<trkpt lat="47.760430" lon="3.466840">
						<ele>158</ele>
						<time>2026-06-05T13:55:22Z</time>
					</trkpt>
					<trkpt lat="47.759080" lon="3.469670">
						<ele>148</ele>
						<time>2026-06-05T13:56:17Z</time>
					</trkpt>
					<trkpt lat="47.758440" lon="3.470190">
						<ele>144</ele>
						<time>2026-06-05T13:56:34Z</time>
					</trkpt>
					<trkpt lat="47.758620" lon="3.471230">
						<ele>146</ele>
						<time>2026-06-05T13:56:51Z</time>
					</trkpt>
					<trkpt lat="47.757740" lon="3.472560">
						<ele>142</ele>
						<time>2026-06-05T13:57:20Z</time>
					</trkpt>
					<trkpt lat="47.757110" lon="3.469910">
						<ele>146</ele>
						<time>2026-06-05T13:58:04Z</time>
					</trkpt>
					<trkpt lat="47.756620" lon="3.469130">
						<ele>147</ele>
						<time>2026-06-05T13:58:21Z</time>
					</trkpt>
					<trkpt lat="47.754470" lon="3.468730">
						<ele>139</ele>
						<time>2026-06-05T13:59:11Z</time>
					</trkpt>
					<trkpt lat="47.752640" lon="3.465420">
						<ele>139</ele>
						<time>2026-06-05T14:00:19Z</time>
					</trkpt>
					<trkpt lat="47.751940" lon="3.466480">
						<ele>140</ele>
						<time>2026-06-05T14:00:42Z</time>
					</trkpt>
					<trkpt lat="47.751750" lon="3.468170">
						<ele>140</ele>
						<time>2026-06-05T14:01:09Z</time>
					</trkpt>
					<trkpt lat="47.751600" lon="3.470050">
						<ele>140</ele>
						<time>2026-06-05T14:01:39Z</time>
					</trkpt>
					<trkpt lat="47.750730" lon="3.470970">
						<ele>145</ele>
						<time>2026-06-05T14:02:04Z</time>
					</trkpt>
					<trkpt lat="47.754030" lon="3.479930">
						<ele>142</ele>
						<time>2026-06-05T14:04:44Z</time>
					</trkpt>
					<trkpt lat="47.754640" lon="3.481840">
						<ele>142</ele>
						<time>2026-06-05T14:05:17Z</time>
					</trkpt>
					<trkpt lat="47.754980" lon="3.482650">
						<ele>142</ele>
						<time>2026-06-05T14:05:32Z</time>
					</trkpt>
					<trkpt lat="47.751100" lon="3.487610">
						<ele>174</ele>
						<time>2026-06-05T14:07:32Z</time>
					</trkpt>
					<trkpt lat="47.752240" lon="3.489050">
						<ele>170</ele>
						<time>2026-06-05T14:08:07Z</time>
					</trkpt>
					<trkpt lat="47.751820" lon="3.489800">
						<ele>172</ele>
						<time>2026-06-05T14:08:22Z</time>
					</trkpt>
					</trkseg>
				</trk>
			</gpx>