<?xml version="1.0" encoding="UTF-8" ?>
<gpx version="1.1" xmlns:xsi="http://www.w3.org/2001/XMLSchema-instance"
    xmlns="http://www.topografix.com/GPX/1/1"
    xsi:schemaLocation="http://www.topografix.com/GPX/1/1 http://www.topografix.com/GPX/1/1/gpx.xsd"
    creator="Openrunner - https://www.openrunner.com" >	<trk>
	                   <name>Nuit des Pirates 17 KM VTT-19479208</name>
						<trkseg>
					<trkpt lat="47.751820" lon="3.489920">
						<ele>172</ele>
						<time>2026-06-05T13:22:57Z</time>
					</trkpt>
					<trkpt lat="47.752020" lon="3.489510">
						<ele>171</ele>
						<time>2026-06-05T13:23:05Z</time>
					</trkpt>
					<trkpt lat="47.752220" lon="3.489110">
						<ele>170</ele>
						<time>2026-06-05T13:23:13Z</time>
					</trkpt>
					<trkpt lat="47.751100" lon="3.487650">
						<ele>174</ele>
						<time>2026-06-05T13:23:48Z</time>
					</trkpt>
					<trkpt lat="47.752610" lon="3.485660">
						<ele>163</ele>
						<time>2026-06-05T13:24:35Z</time>
					</trkpt>
					<trkpt lat="47.754950" lon="3.482780">
						<ele>143</ele>
						<time>2026-06-05T13:25:46Z</time>
					</trkpt>
					<trkpt lat="47.756310" lon="3.485870">
						<ele>141</ele>
						<time>2026-06-05T13:26:44Z</time>
					</trkpt>
					<trkpt lat="47.756520" lon="3.486330">
						<ele>139</ele>
						<time>2026-06-05T13:26:52Z</time>
					</trkpt>
					<trkpt lat="47.757690" lon="3.488290">
						<ele>137</ele>
						<time>2026-06-05T13:27:33Z</time>
					</trkpt>
					<trkpt lat="47.758860" lon="3.487030">
						<ele>132</ele>
						<time>2026-06-05T13:28:07Z</time>
					</trkpt>
					<trkpt lat="47.759610" lon="3.487400">
						<ele>131</ele>
						<time>2026-06-05T13:28:26Z</time>
					</trkpt>
					<trkpt lat="47.760090" lon="3.486690">
						<ele>132</ele>
						<time>2026-06-05T13:28:41Z</time>
					</trkpt>
					<trkpt lat="47.760500" lon="3.486540">
						<ele>132</ele>
						<time>2026-06-05T13:28:51Z</time>
					</trkpt>
					<trkpt lat="47.760490" lon="3.485620">
						<ele>132</ele>
						<time>2026-06-05T13:29:06Z</time>
					</trkpt>
					<trkpt lat="47.761070" lon="3.484090">
						<ele>135</ele>
						<time>2026-06-05T13:29:33Z</time>
					</trkpt>
					<trkpt lat="47.761780" lon="3.482650">
						<ele>138</ele>
						<time>2026-06-05T13:30:01Z</time>
					</trkpt>
					<trkpt lat="47.762840" lon="3.481430">
						<ele>142</ele>
						<time>2026-06-05T13:30:33Z</time>
					</trkpt>
					<trkpt lat="47.764550" lon="3.480160">
						<ele>149</ele>
						<time>2026-06-05T13:31:17Z</time>
					</trkpt>
					<trkpt lat="47.764760" lon="3.480130">
						<ele>150</ele>
						<time>2026-06-05T13:31:22Z</time>
					</trkpt>
					<trkpt lat="47.764930" lon="3.481020">
						<ele>154</ele>
						<time>2026-06-05T13:31:37Z</time>
					</trkpt>
					<trkpt lat="47.764410" lon="3.482330">
						<ele>152</ele>
						<time>2026-06-05T13:32:01Z</time>
					</trkpt>
					<trkpt lat="47.766080" lon="3.482480">
						<ele>167</ele>
						<time>2026-06-05T13:32:40Z</time>
					</trkpt>
					<trkpt lat="47.767640" lon="3.480980">
						<ele>175</ele>
						<time>2026-06-05T13:33:23Z</time>
					</trkpt>
					<trkpt lat="47.769340" lon="3.479310">
						<ele>173</ele>
						<time>2026-06-05T13:34:11Z</time>
					</trkpt>
					<trkpt lat="47.770860" lon="3.477890">
						<ele>171</ele>
						<time>2026-06-05T13:34:53Z</time>
					</trkpt>
					<trkpt lat="47.772000" lon="3.476520">
						<ele>174</ele>
						<time>2026-06-05T13:35:27Z</time>
					</trkpt>
					<trkpt lat="47.772720" lon="3.475420">
						<ele>176</ele>
						<time>2026-06-05T13:35:51Z</time>
					</trkpt>
					<trkpt lat="47.773600" lon="3.474520">
						<ele>177</ele>
						<time>2026-06-05T13:36:16Z</time>
					</trkpt>
					<trkpt lat="47.775000" lon="3.475550">
						<ele>176</ele>
						<time>2026-06-05T13:36:52Z</time>
					</trkpt>
					<trkpt lat="47.775210" lon="3.473730">
						<ele>174</ele>
						<time>2026-06-05T13:37:21Z</time>
					</trkpt>
					<trkpt lat="47.775430" lon="3.471260">
						<ele>181</ele>
						<time>2026-06-05T13:38:00Z</time>
					</trkpt>
					<trkpt lat="47.775810" lon="3.469200">
						<ele>182</ele>
						<time>2026-06-05T13:38:34Z</time>
					</trkpt>
					<trkpt lat="47.776150" lon="3.467080">
						<ele>183</ele>
						<time>2026-06-05T13:39:08Z</time>
					</trkpt>
					<trkpt lat="47.776020" lon="3.465730">
						<ele>185</ele>
						<time>2026-06-05T13:39:30Z</time>
					</trkpt>
					<trkpt lat="47.776020" lon="3.464180">
						<ele>190</ele>
						<time>2026-06-05T13:39:54Z</time>
					</trkpt>
					<trkpt lat="47.776500" lon="3.462530">
						<ele>192</ele>
						<time>2026-06-05T13:40:22Z</time>
					</trkpt>
					<trkpt lat="47.776600" lon="3.461800">
						<ele>194</ele>
						<time>2026-06-05T13:40:34Z</time>
					</trkpt>
					<trkpt lat="47.776250" lon="3.459240">
						<ele>201</ele>
						<time>2026-06-05T13:41:15Z</time>
					</trkpt>
					<trkpt lat="47.776240" lon="3.457980">
						<ele>202</ele>
						<time>2026-06-05T13:41:35Z</time>
					</trkpt>
					<trkpt lat="47.775990" lon="3.455750">
						<ele>207</ele>
						<time>2026-06-05T13:42:10Z</time>
					</trkpt>
					<trkpt lat="47.775530" lon="3.454180">
						<ele>212</ele>
						<time>2026-06-05T13:42:37Z</time>
					</trkpt>
					<trkpt lat="47.775820" lon="3.452530">
						<ele>221</ele>
						<time>2026-06-05T13:43:04Z</time>
					</trkpt>
					<trkpt lat="47.775990" lon="3.451620">
						<ele>225</ele>
						<time>2026-06-05T13:43:18Z</time>
					</trkpt>
					<trkpt lat="47.776210" lon="3.451180">
						<ele>225</ele>
						<time>2026-06-05T13:43:27Z</time>
					</trkpt>
					<trkpt lat="47.776360" lon="3.451600">
						<ele>225</ele>
						<time>2026-06-05T13:43:35Z</time>
					</trkpt>
					<trkpt lat="47.776740" lon="3.452330">
						<ele>224</ele>
						<time>2026-06-05T13:43:49Z</time>
					</trkpt>
					<trkpt lat="47.776960" lon="3.452360">
						<ele>224</ele>
						<time>2026-06-05T13:43:54Z</time>
					</trkpt>
					<trkpt lat="47.777620" lon="3.451290">
						<ele>223</ele>
						<time>2026-06-05T13:44:17Z</time>
					</trkpt>
					<trkpt lat="47.777990" lon="3.450370">
						<ele>221</ele>
						<time>2026-06-05T13:44:34Z</time>
					</trkpt>
					<trkpt lat="47.778160" lon="3.448590">
						<ele>216</ele>
						<time>2026-06-05T13:45:02Z</time>
					</trkpt>
					<trkpt lat="47.778410" lon="3.447400">
						<ele>215</ele>
						<time>2026-06-05T13:45:22Z</time>
					</trkpt>
					<trkpt lat="47.779270" lon="3.447430">
						<ele>211</ele>
						<time>2026-06-05T13:45:42Z</time>
					</trkpt>
					<trkpt lat="47.780110" lon="3.447090">
						<ele>209</ele>
						<time>2026-06-05T13:46:02Z</time>
					</trkpt>
					<trkpt lat="47.781060" lon="3.446620">
						<ele>208</ele>
						<time>2026-06-05T13:46:25Z</time>
					</trkpt>
					<trkpt lat="47.782020" lon="3.446230">
						<ele>208</ele>
						<time>2026-06-05T13:46:49Z</time>
					</trkpt>
					<trkpt lat="47.782450" lon="3.446020">
						<ele>207</ele>
						<time>2026-06-05T13:46:59Z</time>
					</trkpt>
					<trkpt lat="47.782760" lon="3.444580">
						<ele>208</ele>
						<time>2026-06-05T13:47:23Z</time>
					</trkpt>
					<trkpt lat="47.783240" lon="3.443310">
						<ele>210</ele>
						<time>2026-06-05T13:47:46Z</time>
					</trkpt>
					<trkpt lat="47.783640" lon="3.442430">
						<ele>209</ele>
						<time>2026-06-05T13:48:02Z</time>
					</trkpt>
					<trkpt lat="47.783890" lon="3.441500">
						<ele>211</ele>
						<time>2026-06-05T13:48:18Z</time>
					</trkpt>
					<trkpt lat="47.783960" lon="3.440600">
						<ele>213</ele>
						<time>2026-06-05T13:48:32Z</time>
					</trkpt>
					<trkpt lat="47.784080" lon="3.439550">
						<ele>213</ele>
						<time>2026-06-05T13:48:49Z</time>
					</trkpt>
					<trkpt lat="47.784040" lon="3.437900">
						<ele>216</ele>
						<time>2026-06-05T13:49:15Z</time>
					</trkpt>
					<trkpt lat="47.784030" lon="3.437410">
						<ele>217</ele>
						<time>2026-06-05T13:49:23Z</time>
					</trkpt>
					<trkpt lat="47.784050" lon="3.437100">
						<ele>218</ele>
						<time>2026-06-05T13:49:28Z</time>
					</trkpt>
					<trkpt lat="47.784050" lon="3.436340">
						<ele>220</ele>
						<time>2026-06-05T13:49:40Z</time>
					</trkpt>
					<trkpt lat="47.784070" lon="3.435700">
						<ele>221</ele>
						<time>2026-06-05T13:49:50Z</time>
					</trkpt>
					<trkpt lat="47.784180" lon="3.435150">
						<ele>223</ele>
						<time>2026-06-05T13:49:59Z</time>
					</trkpt>
					<trkpt lat="47.783730" lon="3.435020">
						<ele>223</ele>
						<time>2026-06-05T13:50:09Z</time>
					</trkpt>
					<trkpt lat="47.783240" lon="3.433810">
						<ele>225</ele>
						<time>2026-06-05T13:50:31Z</time>
					</trkpt>
					<trkpt lat="47.782580" lon="3.432490">
						<ele>227</ele>
						<time>2026-06-05T13:50:57Z</time>
					</trkpt>
					<trkpt lat="47.782130" lon="3.431710">
						<ele>229</ele>
						<time>2026-06-05T13:51:13Z</time>
					</trkpt>
					<trkpt lat="47.782000" lon="3.432440">
						<ele>225</ele>
						<time>2026-06-05T13:51:25Z</time>
					</trkpt>
					<trkpt lat="47.781540" lon="3.433530">
						<ele>222</ele>
						<time>2026-06-05T13:51:45Z</time>
					</trkpt>
					<trkpt lat="47.781190" lon="3.434650">
						<ele>223</ele>
						<time>2026-06-05T13:52:05Z</time>
					</trkpt>
					<trkpt lat="47.781120" lon="3.435220">
						<ele>222</ele>
						<time>2026-06-05T13:52:14Z</time>
					</trkpt>
					<trkpt lat="47.780670" lon="3.436380">
						<ele>222</ele>
						<time>2026-06-05T13:52:35Z</time>
					</trkpt>
					<trkpt lat="47.780330" lon="3.436990">
						<ele>221</ele>
						<time>2026-06-05T13:52:47Z</time>
					</trkpt>
					<trkpt lat="47.780050" lon="3.438090">
						<ele>217</ele>
						<time>2026-06-05T13:53:06Z</time>
					</trkpt>
					<trkpt lat="47.779690" lon="3.438350">
						<ele>215</ele>
						<time>2026-06-05T13:53:15Z</time>
					</trkpt>
					<trkpt lat="47.779270" lon="3.438060">
						<ele>217</ele>
						<time>2026-06-05T13:53:26Z</time>
					</trkpt>
					<trkpt lat="47.779200" lon="3.438400">
						<ele>214</ele>
						<time>2026-06-05T13:53:32Z</time>
					</trkpt>
					<trkpt lat="47.778720" lon="3.438670">
						<ele>213</ele>
						<time>2026-06-05T13:53:44Z</time>
					</trkpt>
					<trkpt lat="47.778210" lon="3.438420">
						<ele>214</ele>
						<time>2026-06-05T13:53:56Z</time>
					</trkpt>
					<trkpt lat="47.777880" lon="3.438250">
						<ele>213</ele>
						<time>2026-06-05T13:54:04Z</time>
					</trkpt>
					<trkpt lat="47.777670" lon="3.438060">
						<ele>212</ele>
						<time>2026-06-05T13:54:10Z</time>
					</trkpt>
					<trkpt lat="47.777760" lon="3.437740">
						<ele>213</ele>
						<time>2026-06-05T13:54:15Z</time>
					</trkpt>
					<trkpt lat="47.777560" lon="3.437520">
						<ele>212</ele>
						<time>2026-06-05T13:54:21Z</time>
					</trkpt>
					<trkpt lat="47.777400" lon="3.437630">
						<ele>212</ele>
						<time>2026-06-05T13:54:25Z</time>
					</trkpt>
					<trkpt lat="47.777110" lon="3.437150">
						<ele>210</ele>
						<time>2026-06-05T13:54:36Z</time>
					</trkpt>
					<trkpt lat="47.777140" lon="3.436710">
						<ele>209</ele>
						<time>2026-06-05T13:54:42Z</time>
					</trkpt>
					<trkpt lat="47.776890" lon="3.436210">
						<ele>207</ele>
						<time>2026-06-05T13:54:52Z</time>
					</trkpt>
					<trkpt lat="47.775610" lon="3.434290">
						<ele>195</ele>
						<time>2026-06-05T13:55:35Z</time>
					</trkpt>
					<trkpt lat="47.775450" lon="3.435280">
						<ele>200</ele>
						<time>2026-06-05T13:55:51Z</time>
					</trkpt>
					<trkpt lat="47.775420" lon="3.435690">
						<ele>201</ele>
						<time>2026-06-05T13:55:57Z</time>
					</trkpt>
					<trkpt lat="47.775450" lon="3.436370">
						<ele>200</ele>
						<time>2026-06-05T13:56:08Z</time>
					</trkpt>
					<trkpt lat="47.775800" lon="3.437440">
						<ele>200</ele>
						<time>2026-06-05T13:56:27Z</time>
					</trkpt>
					<trkpt lat="47.775940" lon="3.438320">
						<ele>202</ele>
						<time>2026-06-05T13:56:41Z</time>
					</trkpt>
					<trkpt lat="47.775910" lon="3.439050">
						<ele>202</ele>
						<time>2026-06-05T13:56:52Z</time>
					</trkpt>
					<trkpt lat="47.774530" lon="3.441500">
						<ele>203</ele>
						<time>2026-06-05T13:57:42Z</time>
					</trkpt>
					<trkpt lat="47.774200" lon="3.441490">
						<ele>200</ele>
						<time>2026-06-05T13:57:50Z</time>
					</trkpt>
					<trkpt lat="47.773440" lon="3.440410">
						<ele>194</ele>
						<time>2026-06-05T13:58:15Z</time>
					</trkpt>
					<trkpt lat="47.772140" lon="3.441520">
						<ele>198</ele>
						<time>2026-06-05T13:58:50Z</time>
					</trkpt>
					<trkpt lat="47.773080" lon="3.443310">
						<ele>205</ele>
						<time>2026-06-05T13:59:25Z</time>
					</trkpt>
					<trkpt lat="47.773530" lon="3.444180">
						<ele>211</ele>
						<time>2026-06-05T13:59:42Z</time>
					</trkpt>
					<trkpt lat="47.773990" lon="3.445120">
						<ele>215</ele>
						<time>2026-06-05T14:00:01Z</time>
					</trkpt>
					<trkpt lat="47.774210" lon="3.445500">
						<ele>216</ele>
						<time>2026-06-05T14:00:09Z</time>
					</trkpt>
					<trkpt lat="47.774640" lon="3.446530">
						<ele>218</ele>
						<time>2026-06-05T14:00:28Z</time>
					</trkpt>
					<trkpt lat="47.774880" lon="3.447400">
						<ele>220</ele>
						<time>2026-06-05T14:00:42Z</time>
					</trkpt>
					<trkpt lat="47.774300" lon="3.447740">
						<ele>226</ele>
						<time>2026-06-05T14:00:57Z</time>
					</trkpt>
					<trkpt lat="47.773850" lon="3.447880">
						<ele>229</ele>
						<time>2026-06-05T14:01:08Z</time>
					</trkpt>
					<trkpt lat="47.773060" lon="3.448410">
						<ele>234</ele>
						<time>2026-06-05T14:01:28Z</time>
					</trkpt>
					<trkpt lat="47.772720" lon="3.448870">
						<ele>235</ele>
						<time>2026-06-05T14:01:39Z</time>
					</trkpt>
					<trkpt lat="47.771980" lon="3.449170">
						<ele>237</ele>
						<time>2026-06-05T14:01:57Z</time>
					</trkpt>
					<trkpt lat="47.771010" lon="3.449170">
						<ele>234</ele>
						<time>2026-06-05T14:02:19Z</time>
					</trkpt>
					<trkpt lat="47.770500" lon="3.449440">
						<ele>230</ele>
						<time>2026-06-05T14:02:32Z</time>
					</trkpt>
					<trkpt lat="47.768700" lon="3.450710">
						<ele>213</ele>
						<time>2026-06-05T14:03:18Z</time>
					</trkpt>
					<trkpt lat="47.766880" lon="3.451430">
						<ele>198</ele>
						<time>2026-06-05T14:04:02Z</time>
					</trkpt>
					<trkpt lat="47.766070" lon="3.451620">
						<ele>194</ele>
						<time>2026-06-05T14:04:22Z</time>
					</trkpt>
					<trkpt lat="47.764790" lon="3.451980">
						<ele>191</ele>
						<time>2026-06-05T14:04:52Z</time>
					</trkpt>
					<trkpt lat="47.763310" lon="3.453210">
						<ele>184</ele>
						<time>2026-06-05T14:05:32Z</time>
					</trkpt>
					<trkpt lat="47.762830" lon="3.454090">
						<ele>186</ele>
						<time>2026-06-05T14:05:49Z</time>
					</trkpt>
					<trkpt lat="47.762430" lon="3.454370">
						<ele>184</ele>
						<time>2026-06-05T14:06:00Z</time>
					</trkpt>
					<trkpt lat="47.762290" lon="3.454910">
						<ele>186</ele>
						<time>2026-06-05T14:06:09Z</time>
					</trkpt>
					<trkpt lat="47.762300" lon="3.455350">
						<ele>187</ele>
						<time>2026-06-05T14:06:16Z</time>
					</trkpt>
					<trkpt lat="47.762070" lon="3.456110">
						<ele>186</ele>
						<time>2026-06-05T14:06:29Z</time>
					</trkpt>
					<trkpt lat="47.761340" lon="3.457470">
						<ele>183</ele>
						<time>2026-06-05T14:06:56Z</time>
					</trkpt>
					<trkpt lat="47.761060" lon="3.457650">
						<ele>181</ele>
						<time>2026-06-05T14:07:03Z</time>
					</trkpt>
					<trkpt lat="47.760310" lon="3.457650">
						<ele>177</ele>
						<time>2026-06-05T14:07:21Z</time>
					</trkpt>
					<trkpt lat="47.757850" lon="3.457050">
						<ele>168</ele>
						<time>2026-06-05T14:08:19Z</time>
					</trkpt>
					<trkpt lat="47.756760" lon="3.458360">
						<ele>163</ele>
						<time>2026-06-05T14:08:52Z</time>
					</trkpt>
					<trkpt lat="47.755590" lon="3.457740">
						<ele>164</ele>
						<time>2026-06-05T14:09:21Z</time>
					</trkpt>
					<trkpt lat="47.754130" lon="3.457050">
						<ele>165</ele>
						<time>2026-06-05T14:09:56Z</time>
					</trkpt>
					<trkpt lat="47.753670" lon="3.456150">
						<ele>165</ele>
						<time>2026-06-05T14:10:14Z</time>
					</trkpt>
					<trkpt lat="47.752810" lon="3.455400">
						<ele>164</ele>
						<time>2026-06-05T14:10:37Z</time>
					</trkpt>
					<trkpt lat="47.751690" lon="3.456090">
						<ele>162</ele>
						<time>2026-06-05T14:11:06Z</time>
					</trkpt>
					<trkpt lat="47.751780" lon="3.457700">
						<ele>158</ele>
						<time>2026-06-05T14:11:31Z</time>
					</trkpt>
					<trkpt lat="47.750990" lon="3.459360">
						<ele>152</ele>
						<time>2026-06-05T14:12:03Z</time>
					</trkpt>
					<trkpt lat="47.749880" lon="3.462090">
						<ele>142</ele>
						<time>2026-06-05T14:12:53Z</time>
					</trkpt>
					<trkpt lat="47.749060" lon="3.461140">
						<ele>143</ele>
						<time>2026-06-05T14:13:17Z</time>
					</trkpt>
					<trkpt lat="47.747400" lon="3.459830">
						<ele>145</ele>
						<time>2026-06-05T14:14:01Z</time>
					</trkpt>
					<trkpt lat="47.747050" lon="3.460560">
						<ele>142</ele>
						<time>2026-06-05T14:14:15Z</time>
					</trkpt>
					<trkpt lat="47.748450" lon="3.464400">
						<ele>142</ele>
						<time>2026-06-05T14:15:24Z</time>
					</trkpt>
					<trkpt lat="47.748590" lon="3.464790">
						<ele>141</ele>
						<time>2026-06-05T14:15:31Z</time>
					</trkpt>
					<trkpt lat="47.748890" lon="3.465160">
						<ele>141</ele>
						<time>2026-06-05T14:15:40Z</time>
					</trkpt>
					<trkpt lat="47.749260" lon="3.465510">
						<ele>140</ele>
						<time>2026-06-05T14:15:50Z</time>
					</trkpt>
					<trkpt lat="47.749350" lon="3.466430">
						<ele>140</ele>
						<time>2026-06-05T14:16:05Z</time>
					</trkpt>
					<trkpt lat="47.749620" lon="3.467900">
						<ele>142</ele>
						<time>2026-06-05T14:16:29Z</time>
					</trkpt>
					<trkpt lat="47.751000" lon="3.471720">
						<ele>144</ele>
						<time>2026-06-05T14:17:37Z</time>
					</trkpt>
					<trkpt lat="47.753510" lon="3.478680">
						<ele>141</ele>
						<time>2026-06-05T14:19:41Z</time>
					</trkpt>
					<trkpt lat="47.754930" lon="3.482550">
						<ele>142</ele>
						<time>2026-06-05T14:20:50Z</time>
					</trkpt>
					<trkpt lat="47.751100" lon="3.487610">
						<ele>174</ele>
						<time>2026-06-05T14:22:50Z</time>
					</trkpt>
					<trkpt lat="47.752230" lon="3.489060">
						<ele>170</ele>
						<time>2026-06-05T14:23:25Z</time>
					</trkpt>
					<trkpt lat="47.751820" lon="3.489800">
						<ele>172</ele>
						<time>2026-06-05T14:23:40Z</time>
					</trkpt>
					</trkseg>
				</trk>
			</gpx>