<?xml version="1.0" encoding="UTF-8" ?>
<gpx version="1.1" xmlns:xsi="http://www.w3.org/2001/XMLSchema-instance"
    xmlns="http://www.topografix.com/GPX/1/1"
    xsi:schemaLocation="http://www.topografix.com/GPX/1/1 http://www.topografix.com/GPX/1/1/gpx.xsd"
    creator="Openrunner - https://www.openrunner.com" >
                <wpt lat="47.776124" lon="3.450611">
                        <ele>0</ele>
                        <name><![CDATA[Ravitaillement]]></name>
                        <desc><![CDATA[]]></desc>
                    <sym>3</sym>
                </wpt>
            	<trk>
	                   <name>Nuit des Pirates  12 km - VTT-19857160</name>
						<trkseg>
					<trkpt lat="47.751760" lon="3.489900">
						<ele>173</ele>
						<time>2026-06-05T13:22:40Z</time>
					</trkpt>
					<trkpt lat="47.752260" lon="3.489070">
						<ele>170</ele>
						<time>2026-06-05T13:22:57Z</time>
					</trkpt>
					<trkpt lat="47.751280" lon="3.487930">
						<ele>174</ele>
						<time>2026-06-05T13:23:27Z</time>
					</trkpt>
					<trkpt lat="47.751050" lon="3.487700">
						<ele>174</ele>
						<time>2026-06-05T13:23:33Z</time>
					</trkpt>
					<trkpt lat="47.755020" lon="3.482730">
						<ele>142</ele>
						<time>2026-06-05T13:25:34Z</time>
					</trkpt>
					<trkpt lat="47.756230" lon="3.485590">
						<ele>140</ele>
						<time>2026-06-05T13:26:27Z</time>
					</trkpt>
					<trkpt lat="47.757680" lon="3.488300">
						<ele>137</ele>
						<time>2026-06-05T13:27:22Z</time>
					</trkpt>
					<trkpt lat="47.757860" lon="3.488180">
						<ele>136</ele>
						<time>2026-06-05T13:27:26Z</time>
					</trkpt>
					<trkpt lat="47.758890" lon="3.487240">
						<ele>132</ele>
						<time>2026-06-05T13:27:54Z</time>
					</trkpt>
					<trkpt lat="47.759610" lon="3.487400">
						<ele>131</ele>
						<time>2026-06-05T13:28:11Z</time>
					</trkpt>
					<trkpt lat="47.760070" lon="3.486600">
						<ele>132</ele>
						<time>2026-06-05T13:28:28Z</time>
					</trkpt>
					<trkpt lat="47.760490" lon="3.486520">
						<ele>132</ele>
						<time>2026-06-05T13:28:38Z</time>
					</trkpt>
					<trkpt lat="47.760490" lon="3.485640">
						<ele>132</ele>
						<time>2026-06-05T13:28:52Z</time>
					</trkpt>
					<trkpt lat="47.760960" lon="3.484220">
						<ele>134</ele>
						<time>2026-06-05T13:29:17Z</time>
					</trkpt>
					<trkpt lat="47.761760" lon="3.482470">
						<ele>138</ele>
						<time>2026-06-05T13:29:50Z</time>
					</trkpt>
					<trkpt lat="47.762850" lon="3.481460">
						<ele>142</ele>
						<time>2026-06-05T13:30:20Z</time>
					</trkpt>
					<trkpt lat="47.763790" lon="3.480690">
						<ele>145</ele>
						<time>2026-06-05T13:30:45Z</time>
					</trkpt>
					<trkpt lat="47.764550" lon="3.480170">
						<ele>149</ele>
						<time>2026-06-05T13:31:04Z</time>
					</trkpt>
					<trkpt lat="47.764820" lon="3.480260">
						<ele>151</ele>
						<time>2026-06-05T13:31:11Z</time>
					</trkpt>
					<trkpt lat="47.764910" lon="3.481120">
						<ele>154</ele>
						<time>2026-06-05T13:31:24Z</time>
					</trkpt>
					<trkpt lat="47.764410" lon="3.482330">
						<ele>152</ele>
						<time>2026-06-05T13:31:47Z</time>
					</trkpt>
					<trkpt lat="47.766080" lon="3.482480">
						<ele>167</ele>
						<time>2026-06-05T13:32:26Z</time>
					</trkpt>
					<trkpt lat="47.767640" lon="3.480980">
						<ele>175</ele>
						<time>2026-06-05T13:33:09Z</time>
					</trkpt>
					<trkpt lat="47.769340" lon="3.479310">
						<ele>173</ele>
						<time>2026-06-05T13:33:57Z</time>
					</trkpt>
					<trkpt lat="47.770860" lon="3.477890">
						<ele>171</ele>
						<time>2026-06-05T13:34:39Z</time>
					</trkpt>
					<trkpt lat="47.772000" lon="3.476520">
						<ele>174</ele>
						<time>2026-06-05T13:35:13Z</time>
					</trkpt>
					<trkpt lat="47.772720" lon="3.475420">
						<ele>176</ele>
						<time>2026-06-05T13:35:37Z</time>
					</trkpt>
					<trkpt lat="47.773600" lon="3.474520">
						<ele>177</ele>
						<time>2026-06-05T13:36:02Z</time>
					</trkpt>
					<trkpt lat="47.775000" lon="3.475550">
						<ele>176</ele>
						<time>2026-06-05T13:36:38Z</time>
					</trkpt>
					<trkpt lat="47.775210" lon="3.473730">
						<ele>174</ele>
						<time>2026-06-05T13:37:07Z</time>
					</trkpt>
					<trkpt lat="47.775430" lon="3.471260">
						<ele>181</ele>
						<time>2026-06-05T13:37:47Z</time>
					</trkpt>
					<trkpt lat="47.775810" lon="3.469200">
						<ele>182</ele>
						<time>2026-06-05T13:38:20Z</time>
					</trkpt>
					<trkpt lat="47.776150" lon="3.467080">
						<ele>183</ele>
						<time>2026-06-05T13:38:54Z</time>
					</trkpt>
					<trkpt lat="47.776020" lon="3.465730">
						<ele>185</ele>
						<time>2026-06-05T13:39:16Z</time>
					</trkpt>
					<trkpt lat="47.776020" lon="3.464180">
						<ele>190</ele>
						<time>2026-06-05T13:39:40Z</time>
					</trkpt>
					<trkpt lat="47.776500" lon="3.462530">
						<ele>192</ele>
						<time>2026-06-05T13:40:08Z</time>
					</trkpt>
					<trkpt lat="47.776600" lon="3.461800">
						<ele>194</ele>
						<time>2026-06-05T13:40:20Z</time>
					</trkpt>
					<trkpt lat="47.776250" lon="3.459240">
						<ele>201</ele>
						<time>2026-06-05T13:41:01Z</time>
					</trkpt>
					<trkpt lat="47.776240" lon="3.457980">
						<ele>202</ele>
						<time>2026-06-05T13:41:21Z</time>
					</trkpt>
					<trkpt lat="47.775990" lon="3.455750">
						<ele>207</ele>
						<time>2026-06-05T13:41:56Z</time>
					</trkpt>
					<trkpt lat="47.775530" lon="3.454180">
						<ele>212</ele>
						<time>2026-06-05T13:42:23Z</time>
					</trkpt>
					<trkpt lat="47.775820" lon="3.452530">
						<ele>221</ele>
						<time>2026-06-05T13:42:50Z</time>
					</trkpt>
					<trkpt lat="47.776210" lon="3.451180">
						<ele>225</ele>
						<time>2026-06-05T13:43:13Z</time>
					</trkpt>
					<trkpt lat="47.776124" lon="3.450611">
						<ele>224</ele>
						<time>2026-06-05T13:43:22Z</time>
					</trkpt>
					<trkpt lat="47.775910" lon="3.449200">
						<ele>224</ele>
						<time>2026-06-05T13:43:45Z</time>
					</trkpt>
					<trkpt lat="47.774880" lon="3.447410">
						<ele>220</ele>
						<time>2026-06-05T13:44:22Z</time>
					</trkpt>
					<trkpt lat="47.773720" lon="3.447460">
						<ele>227</ele>
						<time>2026-06-05T13:44:49Z</time>
					</trkpt>
					<trkpt lat="47.772420" lon="3.448820">
						<ele>236</ele>
						<time>2026-06-05T13:45:26Z</time>
					</trkpt>
					<trkpt lat="47.771820" lon="3.449270">
						<ele>236</ele>
						<time>2026-06-05T13:45:42Z</time>
					</trkpt>
					<trkpt lat="47.771200" lon="3.448920">
						<ele>235</ele>
						<time>2026-06-05T13:45:57Z</time>
					</trkpt>
					<trkpt lat="47.770720" lon="3.449130">
						<ele>232</ele>
						<time>2026-06-05T13:46:09Z</time>
					</trkpt>
					<trkpt lat="47.770370" lon="3.449440">
						<ele>229</ele>
						<time>2026-06-05T13:46:18Z</time>
					</trkpt>
					<trkpt lat="47.768700" lon="3.450710">
						<ele>213</ele>
						<time>2026-06-05T13:47:02Z</time>
					</trkpt>
					<trkpt lat="47.766880" lon="3.451430">
						<ele>198</ele>
						<time>2026-06-05T13:47:46Z</time>
					</trkpt>
					<trkpt lat="47.764840" lon="3.451970">
						<ele>192</ele>
						<time>2026-06-05T13:48:34Z</time>
					</trkpt>
					<trkpt lat="47.763280" lon="3.452980">
						<ele>182</ele>
						<time>2026-06-05T13:49:14Z</time>
					</trkpt>
					<trkpt lat="47.762540" lon="3.454530">
						<ele>186</ele>
						<time>2026-06-05T13:49:44Z</time>
					</trkpt>
					<trkpt lat="47.761900" lon="3.455840">
						<ele>184</ele>
						<time>2026-06-05T13:50:09Z</time>
					</trkpt>
					<trkpt lat="47.761080" lon="3.457300">
						<ele>181</ele>
						<time>2026-06-05T13:50:39Z</time>
					</trkpt>
					<trkpt lat="47.760810" lon="3.458170">
						<ele>178</ele>
						<time>2026-06-05T13:50:54Z</time>
					</trkpt>
					<trkpt lat="47.758860" lon="3.457320">
						<ele>169</ele>
						<time>2026-06-05T13:51:42Z</time>
					</trkpt>
					<trkpt lat="47.757850" lon="3.456950">
						<ele>168</ele>
						<time>2026-06-05T13:52:06Z</time>
					</trkpt>
					<trkpt lat="47.756790" lon="3.458380">
						<ele>163</ele>
						<time>2026-06-05T13:52:40Z</time>
					</trkpt>
					<trkpt lat="47.754800" lon="3.457420">
						<ele>164</ele>
						<time>2026-06-05T13:53:28Z</time>
					</trkpt>
					<trkpt lat="47.754230" lon="3.457300">
						<ele>164</ele>
						<time>2026-06-05T13:53:42Z</time>
					</trkpt>
					<trkpt lat="47.753780" lon="3.456130">
						<ele>165</ele>
						<time>2026-06-05T13:54:03Z</time>
					</trkpt>
					<trkpt lat="47.752780" lon="3.455420">
						<ele>164</ele>
						<time>2026-06-05T13:54:29Z</time>
					</trkpt>
					<trkpt lat="47.751570" lon="3.455960">
						<ele>162</ele>
						<time>2026-06-05T13:54:58Z</time>
					</trkpt>
					<trkpt lat="47.751710" lon="3.457060">
						<ele>160</ele>
						<time>2026-06-05T13:55:16Z</time>
					</trkpt>
					<trkpt lat="47.751630" lon="3.457860">
						<ele>157</ele>
						<time>2026-06-05T13:55:29Z</time>
					</trkpt>
					<trkpt lat="47.750250" lon="3.461030">
						<ele>145</ele>
						<time>2026-06-05T13:56:28Z</time>
					</trkpt>
					<trkpt lat="47.749940" lon="3.462110">
						<ele>142</ele>
						<time>2026-06-05T13:56:46Z</time>
					</trkpt>
					<trkpt lat="47.747320" lon="3.459720">
						<ele>145</ele>
						<time>2026-06-05T13:57:58Z</time>
					</trkpt>
					<trkpt lat="47.747110" lon="3.460470">
						<ele>143</ele>
						<time>2026-06-05T13:58:11Z</time>
					</trkpt>
					<trkpt lat="47.748600" lon="3.464910">
						<ele>141</ele>
						<time>2026-06-05T13:59:29Z</time>
					</trkpt>
					<trkpt lat="47.750730" lon="3.470970">
						<ele>145</ele>
						<time>2026-06-05T14:01:16Z</time>
					</trkpt>
					<trkpt lat="47.754030" lon="3.479930">
						<ele>142</ele>
						<time>2026-06-05T14:03:57Z</time>
					</trkpt>
					<trkpt lat="47.754640" lon="3.481840">
						<ele>142</ele>
						<time>2026-06-05T14:04:30Z</time>
					</trkpt>
					<trkpt lat="47.754980" lon="3.482650">
						<ele>142</ele>
						<time>2026-06-05T14:04:45Z</time>
					</trkpt>
					<trkpt lat="47.751100" lon="3.487610">
						<ele>174</ele>
						<time>2026-06-05T14:06:44Z</time>
					</trkpt>
					<trkpt lat="47.752240" lon="3.489050">
						<ele>170</ele>
						<time>2026-06-05T14:07:19Z</time>
					</trkpt>
					<trkpt lat="47.751820" lon="3.489800">
						<ele>172</ele>
						<time>2026-06-05T14:07:35Z</time>
					</trkpt>
					</trkseg>
				</trk>
			</gpx>